STARLINK-36742
1 67907U 26036D   26061.16668981 -.01463924  00000+0 -61134-2 0  9993
2 67907  42.9950 295.9279 0001691 274.6585 256.9061 15.87624536  2432
